{
"type": "FeatureCollection",
"name": "areas_para_analise_economica",
"crs": { "type": "name", "properties": { "name": "urn:ogc:def:crs:EPSG::3763" } },
"features": [
{ "type": "Feature", "properties": { "fid": 1, "ptd_id": 400, "area_km2": 0.015861507272556686, "qtd_industriais": 1, "qtd_permanentes": 1, "CAPEX_eur": 1920.0, "VAL_eur": 13404.806449242171, "TIR_perc": 58.92428392515172, "Payback_an": 2.0 }, "geometry": { "type": "Polygon", "coordinates": [ [ [ -43554.942539760311774, 108765.841461552059627 ], [ -43480.318905030362657, 108842.819005769648356 ], [ -43473.081346820894396, 108849.550855133216828 ], [ -43415.263096199319989, 108876.354216393534443 ], [ -43374.582865352516819, 108833.395388614124386 ], [ -43369.105828258121619, 108800.769827765456284 ], [ -43504.834803980586003, 108709.22292412511888 ], [ -43554.942539760311774, 108765.841461552059627 ] ] ] } },
{ "type": "Feature", "properties": { "fid": 2, "ptd_id": 470, "area_km2": 0.0482127756579055, "qtd_industriais": 1, "qtd_permanentes": 2, "CAPEX_eur": 2400.0, "VAL_eur": 17125.747020057384, "TIR_perc": 60.070432449868918, "Payback_an": 2.0 }, "geometry": { "type": "Polygon", "coordinates": [ [ [ -40932.517371204550727, 109215.499775174161186 ], [ -40929.219353444532317, 109232.294769776563044 ], [ -40903.831541699364607, 109220.938956621816033 ], [ -40773.624123663794308, 109152.249720681138569 ], [ -40643.823205149397836, 108874.033923604249139 ], [ -40767.180228651996003, 108918.973835951488581 ], [ -40834.526314936236304, 108954.357599282375304 ], [ -40889.967999079322908, 108988.732604576885933 ], [ -40933.745627864416747, 109153.684369851485826 ], [ -40932.517371204550727, 109215.499775174161186 ] ] ] } },
{ "type": "Feature", "properties": { "fid": 3, "ptd_id": 463, "area_km2": 0.0078339038976006081, "qtd_industriais": 1, "qtd_permanentes": 3, "CAPEX_eur": 2880.0, "VAL_eur": 20846.687590872596, "TIR_perc": 60.834520126485693, "Payback_an": 2.0 }, "geometry": { "type": "Polygon", "coordinates": [ [ [ -42239.08021871605888, 109166.12358260829933 ], [ -42191.258394650983973, 109219.712108114632429 ], [ -42172.623420256320969, 109231.966453115746845 ], [ -42162.18588916054432, 109233.506424885606975 ], [ -42040.550560266594402, 109173.616505485581001 ], [ -42145.067078410029353, 109161.792385335313156 ], [ -42228.850014209609071, 109162.411909056449076 ], [ -42235.205935215148202, 109164.713441999308998 ], [ -42239.08021871605888, 109166.12358260829933 ] ] ] } },
{ "type": "Feature", "properties": { "fid": 4, "ptd_id": 139, "area_km2": 0.023855079166657807, "qtd_industriais": 2, "qtd_permanentes": 1, "CAPEX_eur": 3360.0, "VAL_eur": 23088.672327669123, "TIR_perc": 58.10559263916646, "Payback_an": 2.0 }, "geometry": { "type": "Polygon", "coordinates": [ [ [ -39849.000973782938672, 111119.895100796071347 ], [ -39750.086153798634768, 110844.33609380548296 ], [ -39971.998643610706495, 110980.208827539827325 ], [ -39849.000973782938672, 111119.895100796071347 ] ] ] } },
{ "type": "Feature", "properties": { "fid": 5, "ptd_id": 444, "area_km2": 0.033447068699666925, "qtd_industriais": 2, "qtd_permanentes": 1, "CAPEX_eur": 3360.0, "VAL_eur": 23088.672327669123, "TIR_perc": 58.10559263916646, "Payback_an": 2.0 }, "geometry": { "type": "Polygon", "coordinates": [ [ [ -39859.395800719394174, 108659.381634858960751 ], [ -39705.373078669450479, 108850.920279575846507 ], [ -39683.226872901759634, 108851.290738326613791 ], [ -39628.445025715540396, 108707.709861444294802 ], [ -39653.124296844456694, 108586.063058927626116 ], [ -39859.395800719394174, 108659.381634858960751 ] ] ] } },
{ "type": "Feature", "properties": { "fid": 6, "ptd_id": 460, "area_km2": 0.044408220412806974, "qtd_industriais": 1, "qtd_permanentes": 4, "CAPEX_eur": 3360.0, "VAL_eur": 24567.628161687811, "TIR_perc": 61.380291938991149, "Payback_an": 2.0 }, "geometry": { "type": "Polygon", "coordinates": [ [ [ -43226.418756665174442, 106876.707702024956234 ], [ -43202.985221297800308, 107027.834490867782733 ], [ -43004.330058708226716, 107082.076482741438667 ], [ -43045.817309262194613, 106874.87271273911756 ], [ -43133.402926554088481, 106750.802513556220219 ], [ -43226.418756665174442, 106876.707702024956234 ] ] ] } },
{ "type": "Feature", "properties": { "fid": 7, "ptd_id": 169, "area_km2": 0.022083089612051455, "qtd_industriais": 1, "qtd_permanentes": 4, "CAPEX_eur": 3360.0, "VAL_eur": 24567.628161687811, "TIR_perc": 61.380291938991149, "Payback_an": 2.0 }, "geometry": { "type": "Polygon", "coordinates": [ [ [ -41176.570659134689777, 108967.192626995965838 ], [ -41189.680582525048521, 108981.035545256338082 ], [ -41111.182774931592576, 109114.995414988079574 ], [ -40909.156208570806484, 109052.470378311365494 ], [ -41028.146584033478575, 108995.778897652940941 ], [ -41145.575051628919027, 108957.248627579727327 ], [ -41176.570659134689777, 108967.192626995965838 ] ] ] } },
{ "type": "Feature", "properties": { "fid": 8, "ptd_id": 57, "area_km2": 0.018396987654624525, "qtd_industriais": 2, "qtd_permanentes": 2, "CAPEX_eur": 3840.0, "VAL_eur": 26809.612898484342, "TIR_perc": 58.92428392515172, "Payback_an": 2.0 }, "geometry": { "type": "Polygon", "coordinates": [ [ [ -39682.709699634171557, 108924.459378503990592 ], [ -39600.680593987133761, 108946.676637864162331 ], [ -39546.744468574404891, 108958.89404090543394 ], [ -39486.143886670150096, 108972.608957048738375 ], [ -39397.149150754383299, 108992.69261810783064 ], [ -39345.517643443869019, 109004.290688575958484 ], [ -39288.54389418111532, 109016.882566349915578 ], [ -39546.271959466852422, 108875.936566322809085 ], [ -39579.834640200067952, 108860.1015272114455 ], [ -39682.709699634171557, 108924.459378503990592 ] ] ] } },
{ "type": "Feature", "properties": { "fid": 9, "ptd_id": 466, "area_km2": 0.028553331100197209, "qtd_industriais": 3, "qtd_permanentes": 2, "CAPEX_eur": 5280.0, "VAL_eur": 36493.478776911295, "TIR_perc": 58.40329997017011, "Payback_an": 2.0 }, "geometry": { "type": "Polygon", "coordinates": [ [ [ -38825.625084034058091, 110118.374797566488269 ], [ -38745.276216407473839, 110541.781562268777634 ], [ -38674.205875519008259, 110205.560282535618171 ], [ -38825.625084034058091, 110118.374797566488269 ] ] ] } },
{ "type": "Feature", "properties": { "fid": 10, "ptd_id": 370, "area_km2": 0.070021065355561254, "qtd_industriais": 3, "qtd_permanentes": 2, "CAPEX_eur": 5280.0, "VAL_eur": 36493.478776911295, "TIR_perc": 58.40329997017011, "Payback_an": 2.0 }, "geometry": { "type": "Polygon", "coordinates": [ [ [ -39045.137025760413962, 110211.38545369435451 ], [ -38962.184225582677755, 110385.533561314776307 ], [ -38743.493288695906813, 110614.543967332501779 ], [ -38850.697645024527446, 110070.276339241696405 ], [ -39045.137025760413962, 110211.38545369435451 ] ] ] } },
{ "type": "Feature", "properties": { "fid": 11, "ptd_id": 348, "area_km2": 0.027600166299906369, "qtd_industriais": 1, "qtd_permanentes": 7, "CAPEX_eur": 4800.0, "VAL_eur": 35730.449874133461, "TIR_perc": 62.362671287163927, "Payback_an": 2.0 }, "geometry": { "type": "Polygon", "coordinates": [ [ [ -39386.273761424447002, 111462.365280942613026 ], [ -39344.699641610728577, 112045.086585348777589 ], [ -39269.850254746837891, 111766.451696519157849 ], [ -39386.273761424447002, 111462.365280942613026 ] ] ] } },
{ "type": "Feature", "properties": { "fid": 12, "ptd_id": 159, "area_km2": 0.12990709439905157, "qtd_industriais": 3, "qtd_permanentes": 3, "CAPEX_eur": 5760.0, "VAL_eur": 40214.4193477265, "TIR_perc": 58.924283925151542, "Payback_an": 2.0 }, "geometry": { "type": "Polygon", "coordinates": [ [ [ -37347.768450667979778, 104264.061371016068733 ], [ -37453.53750874351681, 104296.208167313947342 ], [ -37342.312243653468613, 104786.900211543252226 ], [ -37098.170937354007037, 104943.237590684118913 ], [ -37048.120447059984144, 104882.233206528850133 ], [ -37252.008401081468037, 104371.233429409025121 ], [ -37267.240565329419042, 104341.204060384930926 ], [ -37347.768450667979778, 104264.061371016068733 ] ] ] } },
{ "type": "Feature", "properties": { "fid": 13, "ptd_id": 335, "area_km2": 0.048855981743706235, "qtd_industriais": 4, "qtd_permanentes": 1, "CAPEX_eur": 6240.0, "VAL_eur": 42456.404084523034, "TIR_perc": 57.601776382151229, "Payback_an": 2.0 }, "geometry": { "type": "Polygon", "coordinates": [ [ [ -40918.422633252521337, 111548.988386022305349 ], [ -40796.587191711732885, 112146.908858207214507 ], [ -40788.548859981608985, 112137.280980756200734 ], [ -40706.260504215853871, 111928.596972586528864 ], [ -40714.728806181301479, 111906.099890834928374 ], [ -40889.083105505975254, 111528.870971439770074 ], [ -40903.571150472060253, 111535.846983818977606 ], [ -40918.422633252521337, 111548.988386022305349 ] ] ] } },
{ "type": "Feature", "properties": { "fid": 14, "ptd_id": 309, "area_km2": 0.086507469775396126, "qtd_industriais": 4, "qtd_permanentes": 2, "CAPEX_eur": 6720.0, "VAL_eur": 46177.344655338246, "TIR_perc": 58.10559263916646, "Payback_an": 2.0 }, "geometry": { "type": "Polygon", "coordinates": [ [ [ -44498.863370514540293, 108661.941540939224069 ], [ -44172.70523947005131, 108612.911985395112424 ], [ -44166.359049368445994, 108604.712011218565749 ], [ -44167.613354641733167, 108581.509657062066253 ], [ -44413.567317272252694, 108324.312189354983275 ], [ -44471.970176726252248, 108379.36509217787534 ], [ -44524.198096264357446, 108434.248254238293157 ], [ -44622.631085829234507, 108538.005015391012421 ], [ -44534.545264433210832, 108662.88798585292534 ], [ -44498.863370514540293, 108661.941540939224069 ] ] ] } },
{ "type": "Feature", "properties": { "fid": 15, "ptd_id": 284, "area_km2": 0.0046247277655646719, "qtd_industriais": 4, "qtd_permanentes": 4, "CAPEX_eur": 7680.0, "VAL_eur": 53619.225796968683, "TIR_perc": 58.92428392515172, "Payback_an": 2.0 }, "geometry": { "type": "Polygon", "coordinates": [ [ [ -40511.397060877607146, 108047.670213489851449 ], [ -40532.038405127452279, 108052.246860344952438 ], [ -40535.721964580836357, 108104.360883856017608 ], [ -40504.725526284208172, 108129.500587142101722 ], [ -40441.513657313720614, 108032.187174670252716 ], [ -40511.397060877607146, 108047.670213489851449 ] ] ] } },
{ "type": "Feature", "properties": { "fid": 16, "ptd_id": 307, "area_km2": 0.068409210652756278, "qtd_industriais": 7, "qtd_permanentes": 1, "CAPEX_eur": 10560.0, "VAL_eur": 71508.001719803899, "TIR_perc": 57.361316849190281, "Payback_an": 2.0 }, "geometry": { "type": "Polygon", "coordinates": [ [ [ -38916.18686640697706, 109495.297599137309589 ], [ -38908.049056255418691, 109502.051334509917069 ], [ -38798.209883210292901, 109367.29492087829567 ], [ -38809.423918422748102, 109249.162106860880158 ], [ -38818.603547411825275, 109180.569545233462122 ], [ -38884.206599330733297, 109013.458790260570822 ], [ -38944.242149979756505, 109023.367624353151768 ], [ -38959.730611125465657, 109029.556514939526096 ], [ -39030.704811549505393, 109119.613149435201194 ], [ -38916.18686640697706, 109495.297599137309589 ] ] ] } },
{ "type": "Feature", "properties": { "fid": 17, "ptd_id": 440, "area_km2": 0.018676376806429005, "qtd_industriais": 1, "qtd_permanentes": 19, "CAPEX_eur": 10560.0, "VAL_eur": 80381.736723916038, "TIR_perc": 63.612955434063508, "Payback_an": 2.0 }, "geometry": { "type": "Polygon", "coordinates": [ [ [ -37332.698077972941974, 101403.709764113998972 ], [ -37388.729710936633637, 101370.353713781427359 ], [ -37454.495166384025651, 101366.386140489892568 ], [ -37510.961938782558718, 101593.421230866486439 ], [ -37324.910731940741243, 101426.957779663818656 ], [ -37332.698077972941974, 101403.709764113998972 ] ] ] } },
{ "type": "Feature", "properties": { "fid": 18, "ptd_id": 351, "area_km2": 0.16639527955763128, "qtd_industriais": 9, "qtd_permanentes": 2, "CAPEX_eur": 13920.0, "VAL_eur": 94596.674047473003, "TIR_perc": 57.540970633815867, "Payback_an": 2.0 }, "geometry": { "type": "Polygon", "coordinates": [ [ [ -45741.0529668997915, 107644.965324809701997 ], [ -45589.634232500975486, 107991.983859631203813 ], [ -45570.968357342710078, 107998.177274088215199 ], [ -45015.851005540018377, 107973.343284727772698 ], [ -45361.370930076998775, 107674.013572530340753 ], [ -45503.259961035138986, 107609.092676578773535 ], [ -45527.032178468485654, 107600.853649461700115 ], [ -45741.0529668997915, 107644.965324809701997 ] ] ] } },
{ "type": "Feature", "properties": { "fid": 19, "ptd_id": 168, "area_km2": 0.032719538787737798, "qtd_industriais": 9, "qtd_permanentes": 3, "CAPEX_eur": 14400.0, "VAL_eur": 98317.614618288237, "TIR_perc": 57.778112635609901, "Payback_an": 2.0 }, "geometry": { "type": "Polygon", "coordinates": [ [ [ -40610.992515306199493, 110722.412496771459701 ], [ -40436.769347047920746, 110676.798074871650897 ], [ -40417.553713170891569, 110671.074397733988008 ], [ -40389.436737010641082, 110647.623046865206561 ], [ -40519.914847718035162, 110515.004791348532308 ], [ -40677.301145095567335, 110619.952542773986352 ], [ -40610.992515306199493, 110722.412496771459701 ] ] ] } },
{ "type": "Feature", "properties": { "fid": 20, "ptd_id": 180, "area_km2": 0.020940218803567775, "qtd_industriais": 1, "qtd_permanentes": 22, "CAPEX_eur": 12000.0, "VAL_eur": 91544.558436361694, "TIR_perc": 63.737982887088322, "Payback_an": 2.0 }, "geometry": { "type": "Polygon", "coordinates": [ [ [ -39078.545394615968689, 111293.453630382442498 ], [ -39001.820754801643488, 111328.520419700391358 ], [ -38942.008178088617569, 111307.062705865406315 ], [ -39000.557415048970142, 111069.686951125171618 ], [ -39035.961135438352358, 111087.629838926004595 ], [ -39078.545394615968689, 111293.453630382442498 ] ] ] } },
{ "type": "Feature", "properties": { "fid": 21, "ptd_id": 419, "area_km2": 0.038309284234380972, "qtd_industriais": 9, "qtd_permanentes": 5, "CAPEX_eur": 15360.0, "VAL_eur": 105759.49575991867, "TIR_perc": 58.207929720603687, "Payback_an": 2.0 }, "geometry": { "type": "Polygon", "coordinates": [ [ [ -39395.114251570463239, 109515.842400549445301 ], [ -39128.14718635186, 109395.286737895468832 ], [ -39102.894502471404849, 109333.698417811479885 ], [ -39285.627064754167804, 109231.25074661403778 ], [ -39395.114251570463239, 109515.842400549445301 ] ] ] } },
{ "type": "Feature", "properties": { "fid": 22, "ptd_id": 167, "area_km2": 0.060626600403360896, "qtd_industriais": 11, "qtd_permanentes": 1, "CAPEX_eur": 16320.0, "VAL_eur": 110243.46523351173, "TIR_perc": 57.238729180663285, "Payback_an": 2.0 }, "geometry": { "type": "Polygon", "coordinates": [ [ [ -43188.439749863158795, 107720.676636378411786 ], [ -43049.549618832163105, 107810.822932984810905 ], [ -42997.76293415298278, 107813.122140044579282 ], [ -42956.860345424393017, 107766.211069564902573 ], [ -43096.017160930401587, 107492.618990439194022 ], [ -43166.129777101152285, 107356.265669096668717 ], [ -43187.981982812845672, 107365.109958739572903 ], [ -43209.538466303449241, 107397.195626764732879 ], [ -43199.867523731627443, 107694.690323429327691 ], [ -43188.439749863158795, 107720.676636378411786 ] ] ] } },
{ "type": "Feature", "properties": { "fid": 23, "ptd_id": 292, "area_km2": 0.04584158306314693, "qtd_industriais": 12, "qtd_permanentes": 1, "CAPEX_eur": 17760.0, "VAL_eur": 119927.33111193866, "TIR_perc": 57.220506662746232, "Payback_an": 2.0 }, "geometry": { "type": "Polygon", "coordinates": [ [ [ -36949.87300161980238, 100067.9499812789727 ], [ -36911.394536702748155, 100125.771394793555373 ], [ -36903.087392066234315, 100127.429343459472875 ], [ -36611.148095296310203, 100057.28503686451586 ], [ -36577.007018490578048, 100034.130477859973325 ], [ -36538.461864378063183, 100005.846265801257687 ], [ -36633.925979160747374, 99892.145230280977557 ], [ -36943.245342065085424, 100060.487992709298851 ], [ -36949.87300161980238, 100067.9499812789727 ] ] ] } },
{ "type": "Feature", "properties": { "fid": 24, "ptd_id": 413, "area_km2": 0.065565842630722557, "qtd_industriais": 4, "qtd_permanentes": 19, "CAPEX_eur": 14880.0, "VAL_eur": 109433.33435919689, "TIR_perc": 61.697189855910509, "Payback_an": 2.0 }, "geometry": { "type": "Polygon", "coordinates": [ [ [ -38471.871946573781315, 110678.464826920244377 ], [ -38441.503143328438455, 110894.746038865880109 ], [ -38099.564176150757703, 110653.748952310343157 ], [ -38250.040162330733438, 110529.822523737922893 ], [ -38471.871946573781315, 110678.464826920244377 ] ] ] } },
{ "type": "Feature", "properties": { "fid": 25, "ptd_id": 431, "area_km2": 0.055627370738335, "qtd_industriais": 2, "qtd_permanentes": 24, "CAPEX_eur": 14400.0, "VAL_eur": 108670.30545641907, "TIR_perc": 63.12673593912681, "Payback_an": 2.0 }, "geometry": { "type": "Polygon", "coordinates": [ [ [ -40235.612823465045949, 109825.798762827020255 ], [ -40206.020105050054553, 110096.5035250421206 ], [ -40185.722756050272437, 110099.714242502872366 ], [ -39824.516134272031195, 110018.802684351205244 ], [ -40175.806956021922815, 109846.874993874211214 ], [ -40235.612823465045949, 109825.798762827020255 ] ] ] } },
{ "type": "Feature", "properties": { "fid": 26, "ptd_id": 164, "area_km2": 0.03274832859070357, "qtd_industriais": 3, "qtd_permanentes": 22, "CAPEX_eur": 14880.0, "VAL_eur": 110912.29019321559, "TIR_perc": 62.436613329610033, "Payback_an": 2.0 }, "geometry": { "type": "Polygon", "coordinates": [ [ [ -43476.010290159421857, 106672.660942329312093 ], [ -43558.823709768046683, 106790.292965787521098 ], [ -43559.558353446424007, 106797.771012571785832 ], [ -43456.536184138560202, 106946.055281743683736 ], [ -43428.201764559882577, 106948.877201990471804 ], [ -43356.024780491658021, 106913.808488469323493 ], [ -43350.260551842344285, 106873.552170022579958 ], [ -43418.726958813727833, 106731.083815535515896 ], [ -43476.010290159421857, 106672.660942329312093 ] ] ] } },
{ "type": "Feature", "properties": { "fid": 27, "ptd_id": 172, "area_km2": 0.012323401212936881, "qtd_industriais": 7, "qtd_permanentes": 15, "CAPEX_eur": 17280.0, "VAL_eur": 123601.16971121691, "TIR_perc": 60.197780998143699, "Payback_an": 2.0 }, "geometry": { "type": "Polygon", "coordinates": [ [ [ -43007.264381278284418, 108777.380694951309124 ], [ -43010.276892891044554, 108777.164902356205857 ], [ -43018.806287235594937, 108776.625645058520604 ], [ -42868.134606210995116, 108893.803619479716872 ], [ -42781.563283311086707, 108798.000925617641769 ], [ -43007.264381278284418, 108777.380694951309124 ] ] ] } },
{ "type": "Feature", "properties": { "fid": 28, "ptd_id": 453, "area_km2": 0.034355791778652701, "qtd_industriais": 1, "qtd_permanentes": 30, "CAPEX_eur": 15840.0, "VAL_eur": 121312.08300288339, "TIR_perc": 63.960253504159901, "Payback_an": 2.0 }, "geometry": { "type": "Polygon", "coordinates": [ [ [ -44111.314879917757935, 108205.632363266428001 ], [ -44069.281626577219868, 108211.19129967103072 ], [ -43982.530364471553185, 108220.017455222070566 ], [ -43944.98960532041383, 108215.475744707335252 ], [ -43893.163350660601282, 108187.606852938086377 ], [ -43883.2553502590672, 108150.679301898737322 ], [ -43894.964843293222657, 108141.77540241915267 ], [ -43954.626770585709892, 108099.128426326045883 ], [ -44009.537231451686239, 108064.716054491320392 ], [ -44156.214306700909219, 108093.425614114748896 ], [ -44187.647464699890406, 108146.472764926482341 ], [ -44204.114266166136076, 108184.09490676347923 ], [ -44111.314879917757935, 108205.632363266428001 ] ] ] } },
{ "type": "Feature", "properties": { "fid": 29, "ptd_id": 267, "area_km2": 0.056135183094898747, "qtd_industriais": 1, "qtd_permanentes": 31, "CAPEX_eur": 16320.0, "VAL_eur": 125033.02357369862, "TIR_perc": 63.980682762745843, "Payback_an": 2.0 }, "geometry": { "type": "Polygon", "coordinates": [ [ [ -43891.290258429951791, 106475.205463420410524 ], [ -43940.037996719940566, 106665.446213839299162 ], [ -43932.817429107570206, 106674.609751598007279 ], [ -43744.434567514945229, 106672.8896466584265 ], [ -43627.517955903727852, 106531.790404815881629 ], [ -43645.440087498813227, 106417.53492812391778 ], [ -43891.290258429951791, 106475.205463420410524 ] ] ] } },
{ "type": "Feature", "properties": { "fid": 30, "ptd_id": 446, "area_km2": 0.026483606841372791, "qtd_industriais": 1, "qtd_permanentes": 33, "CAPEX_eur": 17280.0, "VAL_eur": 132474.90471532906, "TIR_perc": 64.01813639218625, "Payback_an": 2.0 }, "geometry": { "type": "Polygon", "coordinates": [ [ [ -44285.253264943079557, 105258.851211219895049 ], [ -44298.745180078745761, 105278.354287251044298 ], [ -44228.920564612388262, 105715.736245528561994 ], [ -44164.890869239949097, 105709.50383382003929 ], [ -44147.543301813879225, 105683.848098314294475 ], [ -44139.85799324324762, 105669.854515864426503 ], [ -44285.253264943079557, 105258.851211219895049 ] ] ] } },
{ "type": "Feature", "properties": { "fid": 31, "ptd_id": 412, "area_km2": 0.094335566617046049, "qtd_industriais": 3, "qtd_permanentes": 29, "CAPEX_eur": 18240.0, "VAL_eur": 136958.87418892211, "TIR_perc": 62.845239229065797, "Payback_an": 2.0 }, "geometry": { "type": "Polygon", "coordinates": [ [ [ -41264.95418913741014, 109605.616054281024844 ], [ -41214.280398546761717, 109684.203690921320231 ], [ -41012.544106015193393, 109792.862668730798759 ], [ -40947.263723853560805, 109769.393203171814093 ], [ -40983.572999379146495, 109597.219485008681659 ], [ -40991.013347519241506, 109565.422105016317801 ], [ -40995.082070747004764, 109553.040109878245858 ], [ -41359.862986768835981, 109257.786540022061672 ], [ -41264.95418913741014, 109605.616054281024844 ] ] ] } },
{ "type": "Feature", "properties": { "fid": 32, "ptd_id": 330, "area_km2": 0.018943759602918341, "qtd_industriais": 5, "qtd_permanentes": 25, "CAPEX_eur": 19200.0, "VAL_eur": 141442.84366251517, "TIR_perc": 61.78961816769786, "Payback_an": 2.0 }, "geometry": { "type": "Polygon", "coordinates": [ [ [ -42994.537590620719129, 106555.326642400003038 ], [ -42877.672561153311108, 106730.124451946860063 ], [ -42862.895474376855418, 106717.646054559168988 ], [ -42797.059712072972616, 106661.919435228395741 ], [ -42831.369758332584752, 106563.270209363094182 ], [ -42994.537590620719129, 106555.326642400003038 ] ] ] } },
{ "type": "Feature", "properties": { "fid": 33, "ptd_id": 120, "area_km2": 0.04655268598065463, "qtd_industriais": 2, "qtd_permanentes": 32, "CAPEX_eur": 18240.0, "VAL_eur": 138437.83002294079, "TIR_perc": 63.44844537009611, "Payback_an": 2.0 }, "geometry": { "type": "Polygon", "coordinates": [ [ [ -38931.724118467012886, 102857.085026371627464 ], [ -38994.840636878965597, 102910.552229489738238 ], [ -39097.251447566661227, 103075.353443116342532 ], [ -38744.325671093327401, 103142.694361048503197 ], [ -38931.724118467012886, 102857.085026371627464 ] ] ] } },
{ "type": "Feature", "properties": { "fid": 34, "ptd_id": 135, "area_km2": 0.036820301401783058, "qtd_industriais": 13, "qtd_permanentes": 8, "CAPEX_eur": 22560.0, "VAL_eur": 155657.78098607212, "TIR_perc": 58.314621362864493, "Payback_an": 2.0 }, "geometry": { "type": "Polygon", "coordinates": [ [ [ -40559.703306920462637, 111111.734015426671249 ], [ -40270.793139740206243, 110953.614306787552778 ], [ -40286.384517272716039, 110925.824898597449646 ], [ -40314.463313398868195, 110876.648113138828194 ], [ -40381.472088611335494, 110759.486170258227503 ], [ -40559.703306920462637, 111111.734015426671249 ] ] ] } },
{ "type": "Feature", "properties": { "fid": 35, "ptd_id": 79, "area_km2": 0.01840156447097719, "qtd_industriais": 7, "qtd_permanentes": 22, "CAPEX_eur": 20640.0, "VAL_eur": 149647.75370692337, "TIR_perc": 60.923366981816976, "Payback_an": 2.0 }, "geometry": { "type": "Polygon", "coordinates": [ [ [ -43836.568375746901438, 108136.300571514977491 ], [ -43824.37901744247938, 108205.147352407264407 ], [ -43730.494482435991813, 108296.423507497878745 ], [ -43706.285341354174307, 108284.731906953078578 ], [ -43645.584692997887032, 108238.167072545300471 ], [ -43638.421533859349438, 108211.894694732967764 ], [ -43800.091683496211772, 108123.359268330546911 ], [ -43808.623112834335188, 108121.177355343126692 ], [ -43836.568375746901438, 108136.300571514977491 ] ] ] } },
{ "type": "Feature", "properties": { "fid": 36, "ptd_id": 286, "area_km2": 0.10786831760299517, "qtd_industriais": 13, "qtd_permanentes": 11, "CAPEX_eur": 24000.0, "VAL_eur": 166820.60269851779, "TIR_perc": 58.69505157946098, "Payback_an": 2.0 }, "geometry": { "type": "Polygon", "coordinates": [ [ [ -40224.119482223584782, 108801.302065011157538 ], [ -40200.3738402644085, 108887.871176315718913 ], [ -40176.899511738258298, 108922.7365138324094 ], [ -39880.218105181316787, 108372.715601674324716 ], [ -40297.274103921146889, 108448.933634848406655 ], [ -40224.119482223584782, 108801.302065011157538 ] ] ] } },
{ "type": "Feature", "properties": { "fid": 37, "ptd_id": 496, "area_km2": 0.085173855255848765, "qtd_industriais": 4, "qtd_permanentes": 31, "CAPEX_eur": 20640.0, "VAL_eur": 154084.62120897949, "TIR_perc": 62.522592365794182, "Payback_an": 2.0 }, "geometry": { "type": "Polygon", "coordinates": [ [ [ -42976.070492365121027, 108087.34911916674173 ], [ -42954.961968914220051, 108108.271468008635566 ], [ -42897.338476485012507, 108105.040614338882733 ], [ -42875.542182080440398, 108092.688243212294765 ], [ -42800.246262654320162, 107726.263087649946101 ], [ -42858.016349557758076, 107667.827232125477167 ], [ -42912.42055761381198, 107676.836045284202555 ], [ -43107.879172389839368, 107740.742945376303396 ], [ -43086.353675170750648, 107801.307831368554616 ], [ -43017.68428150552063, 107987.487891708689858 ], [ -42976.070492365121027, 108087.34911916674173 ] ] ] } },
{ "type": "Feature", "properties": { "fid": 38, "ptd_id": 476, "area_km2": 0.18214159053916026, "qtd_industriais": 7, "qtd_permanentes": 26, "CAPEX_eur": 22560.0, "VAL_eur": 164531.51599018427, "TIR_perc": 61.240946332416883, "Payback_an": 2.0 }, "geometry": { "type": "Polygon", "coordinates": [ [ [ -44099.921158526849467, 106409.163473175969557 ], [ -43933.793682264586096, 106605.24177483098174 ], [ -43623.136958655370108, 106437.604425733152311 ], [ -43542.234293070912827, 106205.411506686563371 ], [ -43569.91746669641725, 106127.837659463868476 ], [ -43871.041344835721247, 106073.313949117669836 ], [ -44099.921158526849467, 106409.163473175969557 ] ] ] } },
{ "type": "Feature", "properties": { "fid": 39, "ptd_id": 112, "area_km2": 0.042296640864536869, "qtd_industriais": 4, "qtd_permanentes": 33, "CAPEX_eur": 21600.0, "VAL_eur": 161526.50235060992, "TIR_perc": 62.617360267643932, "Payback_an": 2.0 }, "geometry": { "type": "Polygon", "coordinates": [ [ [ -44112.484099292189057, 107558.830705994347227 ], [ -44018.091126163752051, 107668.312731655823882 ], [ -44007.730881223469623, 107667.785045579323196 ], [ -43970.333943801895657, 107651.31717213705997 ], [ -43928.406201426099869, 107606.959934470010921 ], [ -43922.425716606987407, 107599.672977451555198 ], [ -43883.098143706512928, 107548.979210092744324 ], [ -43877.148965255721123, 107405.776643553152098 ], [ -43995.940214758506045, 107392.596461596695008 ], [ -44013.53200142874266, 107413.544824365599197 ], [ -44112.484099292189057, 107558.830705994347227 ] ] ] } },
{ "type": "Feature", "properties": { "fid": 40, "ptd_id": 142, "area_km2": 0.008595838913701366, "qtd_industriais": 11, "qtd_permanentes": 18, "CAPEX_eur": 24480.0, "VAL_eur": 173499.45493737035, "TIR_perc": 59.710858726499879, "Payback_an": 2.0 }, "geometry": { "type": "Polygon", "coordinates": [ [ [ -41585.210956157716282, 109552.651469666918274 ], [ -41642.465719728432305, 109618.292203612727462 ], [ -41527.805297382488789, 109712.289058335256414 ], [ -41513.572356163123914, 109677.250640807338641 ], [ -41585.210956157716282, 109552.651469666918274 ] ] ] } },
{ "type": "Feature", "properties": { "fid": 41, "ptd_id": 227, "area_km2": 0.044992176663163096, "qtd_industriais": 2, "qtd_permanentes": 38, "CAPEX_eur": 21120.0, "VAL_eur": 160763.47344783208, "TIR_perc": 63.612955434063508, "Payback_an": 2.0 }, "geometry": { "type": "Polygon", "coordinates": [ [ [ -36973.195781338254164, 107546.014277079055319 ], [ -36864.930495352738944, 107507.575821145292139 ], [ -36864.360469902523619, 107496.268098535685567 ], [ -36866.459434115524346, 107451.680781018891139 ], [ -37200.880340397889086, 107069.633369755509193 ], [ -37132.570364270533901, 107263.063572335333447 ], [ -36973.195781338254164, 107546.014277079055319 ] ] ] } },
{ "type": "Feature", "properties": { "fid": 42, "ptd_id": 405, "area_km2": 0.020399967255651161, "qtd_industriais": 2, "qtd_permanentes": 56, "CAPEX_eur": 29760.0, "VAL_eur": 227740.40372250596, "TIR_perc": 63.915440921648759, "Payback_an": 2.0 }, "geometry": { "type": "Polygon", "coordinates": [ [ [ -38614.870779909702833, 109376.757427340911818 ], [ -38435.892109833017457, 109539.274857938376954 ], [ -38598.63012840400188, 109163.544615216334932 ], [ -38614.870779909702833, 109376.757427340911818 ] ] ] } },
{ "type": "Feature", "properties": { "fid": 43, "ptd_id": 175, "area_km2": 0.067199152684748617, "qtd_industriais": 8, "qtd_permanentes": 43, "CAPEX_eur": 32160.0, "VAL_eur": 237471.37157246986, "TIR_perc": 61.917914000722817, "Payback_an": 2.0 }, "geometry": { "type": "Polygon", "coordinates": [ [ [ -42305.463800439873012, 107942.582354914018651 ], [ -42396.707985840614128, 107907.021104776125867 ], [ -42464.38891319627146, 107924.064686494151829 ], [ -42483.760473507521965, 107943.475953760455013 ], [ -42499.431996763509233, 107978.246735937806079 ], [ -42391.351616413958254, 108086.960179577668896 ], [ -42242.701322462540702, 108169.292181353739579 ], [ -42111.961976451471855, 108178.467994858248858 ], [ -42043.679491523456818, 108064.554265409358777 ], [ -42280.927983638212027, 107953.559131848916877 ], [ -42305.463800439873012, 107942.582354914018651 ] ] ] } },
{ "type": "Feature", "properties": { "fid": 44, "ptd_id": 430, "area_km2": 0.11126098265843479, "qtd_industriais": 2, "qtd_permanentes": 57, "CAPEX_eur": 30240.0, "VAL_eur": 231461.34429332119, "TIR_perc": 63.927177552435111, "Payback_an": 2.0 }, "geometry": { "type": "Polygon", "coordinates": [ [ [ -38636.623897453631798, 112616.350675826586667 ], [ -38394.375517023763678, 112742.959429154143436 ], [ -38332.578257663102704, 112693.511281721672276 ], [ -38178.637662239474594, 112392.53620193428651 ], [ -38150.442936364968773, 112207.957639975778875 ], [ -38165.194905860094877, 112206.567510591296013 ], [ -38498.430448264007282, 112466.602602607847075 ], [ -38632.420155419153161, 112608.610753583590849 ], [ -38636.623897453631798, 112616.350675826586667 ] ] ] } },
{ "type": "Feature", "properties": { "fid": 45, "ptd_id": 338, "area_km2": 0.094843217572610855, "qtd_industriais": 1, "qtd_permanentes": 63, "CAPEX_eur": 31680.0, "VAL_eur": 244103.12183978545, "TIR_perc": 64.307550313535543, "Payback_an": 2.0 }, "geometry": { "type": "Polygon", "coordinates": [ [ [ -34474.317385345115326, 105540.880744630892877 ], [ -34194.270029556253576, 105049.229420761432266 ], [ -34353.226096697835601, 105013.99200994115381 ], [ -34473.814708503174188, 105093.705068895826116 ], [ -34581.257664021104574, 105616.445929688998149 ], [ -34474.317385345115326, 105540.880744630892877 ] ] ] } },
{ "type": "Feature", "properties": { "fid": 46, "ptd_id": 361, "area_km2": 0.12509422277452451, "qtd_industriais": 6, "qtd_permanentes": 54, "CAPEX_eur": 34560.0, "VAL_eur": 259033.98609458329, "TIR_perc": 62.744704468203508, "Payback_an": 2.0 }, "geometry": { "type": "Polygon", "coordinates": [ [ [ -36640.278449386489228, 105769.323969431905425 ], [ -36445.864386729401303, 105643.527845245465869 ], [ -36380.006436487543397, 105514.921245122866821 ], [ -36444.833783486734319, 105451.229182068651426 ], [ -36725.78743910707999, 105307.422986855730414 ], [ -36840.924325957843394, 105655.255249729263596 ], [ -36640.278449386489228, 105769.323969431905425 ] ] ] } },
{ "type": "Feature", "properties": { "fid": 47, "ptd_id": 133, "area_km2": 0.017783335851482798, "qtd_industriais": 2, "qtd_permanentes": 66, "CAPEX_eur": 34560.0, "VAL_eur": 264949.80943065812, "TIR_perc": 64.01813639218625, "Payback_an": 2.0 }, "geometry": { "type": "Polygon", "coordinates": [ [ [ -39896.72949926815636, 102509.149524157954147 ], [ -39927.960928614636941, 102717.468470217485446 ], [ -39889.756777581089409, 102734.809791144929477 ], [ -39776.693726371959201, 102549.030100561314612 ], [ -39885.020604178156646, 102510.896977393771522 ], [ -39896.72949926815636, 102509.149524157954147 ] ] ] } },
{ "type": "Feature", "properties": { "fid": 48, "ptd_id": 147, "area_km2": 0.044541004031173975, "qtd_industriais": 22, "qtd_permanentes": 22, "CAPEX_eur": 42240.0, "VAL_eur": 294905.74188332772, "TIR_perc": 58.924283925151769, "Payback_an": 2.0 }, "geometry": { "type": "Polygon", "coordinates": [ [ [ -40967.721330435459095, 105274.078771145577775 ], [ -40987.294762194753275, 105321.827110191021347 ], [ -40610.708488822245272, 105535.468482752403361 ], [ -40575.457583967712708, 105423.126526222651592 ], [ -40576.245217094408872, 105377.966619663100573 ], [ -40967.721330435459095, 105274.078771145577775 ] ] ] } },
{ "type": "Feature", "properties": { "fid": 49, "ptd_id": 78, "area_km2": 0.098489346143768378, "qtd_industriais": 16, "qtd_permanentes": 36, "CAPEX_eur": 40320.0, "VAL_eur": 288895.71460417903, "TIR_perc": 60.288744096654327, "Payback_an": 2.0 }, "geometry": { "type": "Polygon", "coordinates": [ [ [ -41027.692969106123201, 109718.974986311019165 ], [ -41002.861773763012025, 109956.743157950331806 ], [ -40906.685156407816976, 110215.229521517379908 ], [ -40689.382396713226626, 110218.701463149787742 ], [ -40698.682828015640553, 109988.85407032049261 ], [ -41027.692969106123201, 109718.974986311019165 ] ] ] } },
{ "type": "Feature", "properties": { "fid": 50, "ptd_id": 15, "area_km2": 0.20050607356099939, "qtd_industriais": 3, "qtd_permanentes": 65, "CAPEX_eur": 35520.0, "VAL_eur": 270912.73473826994, "TIR_perc": 63.725592786606896, "Payback_an": 2.0 }, "geometry": { "type": "Polygon", "coordinates": [ [ [ -38594.852666557322664, 101741.273507239238825 ], [ -38980.446057830478821, 102088.854299240134424 ], [ -39106.860508418889367, 102310.282862677922822 ], [ -38565.018163741326134, 102410.391930922720348 ], [ -38594.852666557322664, 101741.273507239238825 ] ] ] } },
{ "type": "Feature", "properties": { "fid": 51, "ptd_id": 5, "area_km2": 0.10283092180700909, "qtd_industriais": 31, "qtd_permanentes": 6, "CAPEX_eur": 47520.0, "VAL_eur": 322525.48565612693, "TIR_perc": 57.477093807824417, "Payback_an": 2.0 }, "geometry": { "type": "Polygon", "coordinates": [ [ [ -40241.957322937778372, 111002.154165470332373 ], [ -40555.524495409423253, 111276.322720626136288 ], [ -40350.300852145817771, 111348.633107590299915 ], [ -40032.823305217498273, 111303.60655122307071 ], [ -39997.972230861247226, 111255.866772783643682 ], [ -40187.625659996032482, 111054.098803740314906 ], [ -40241.957322937778372, 111002.154165470332373 ] ] ] } },
{ "type": "Feature", "properties": { "fid": 52, "ptd_id": 469, "area_km2": 0.033832921833035587, "qtd_industriais": 1, "qtd_permanentes": 74, "CAPEX_eur": 36960.0, "VAL_eur": 285033.46811875282, "TIR_perc": 64.357164042850343, "Payback_an": 2.0 }, "geometry": { "type": "Polygon", "coordinates": [ [ [ -43415.501295402660617, 107117.31228072468366 ], [ -43378.125001080748916, 107157.583660495409276 ], [ -43333.632638035123819, 107148.662507623434067 ], [ -43185.958599878074892, 106994.964480761991581 ], [ -43279.979577796475496, 106910.922841851555859 ], [ -43326.659697487812082, 106922.16624874054105 ], [ -43397.313363390465383, 106983.433887228107778 ], [ -43414.859393472557713, 107053.298592505976558 ], [ -43415.501295402660617, 107117.31228072468366 ] ] ] } },
{ "type": "Feature", "properties": { "fid": 53, "ptd_id": 371, "area_km2": 0.088887731403957879, "qtd_industriais": 3, "qtd_permanentes": 71, "CAPEX_eur": 38400.0, "VAL_eur": 293238.37816316122, "TIR_perc": 63.79528708054292, "Payback_an": 2.0 }, "geometry": { "type": "Polygon", "coordinates": [ [ [ -42306.809365485118178, 108384.385077884624479 ], [ -42075.477365420294518, 108713.939394069369882 ], [ -42023.727402602569782, 108700.442907626682427 ], [ -41947.505678777524736, 108368.980192676608567 ], [ -42028.31009558722144, 108262.016362159236451 ], [ -42306.809365485118178, 108384.385077884624479 ] ] ] } },
{ "type": "Feature", "properties": { "fid": 54, "ptd_id": 218, "area_km2": 0.027954263847175025, "qtd_industriais": 4, "qtd_permanentes": 71, "CAPEX_eur": 39840.0, "VAL_eur": 302922.2440415881, "TIR_perc": 63.550190584925879, "Payback_an": 2.0 }, "geometry": { "type": "Polygon", "coordinates": [ [ [ -43183.152071309676103, 103748.630275198316667 ], [ -43237.093521714938106, 103801.436711819755146 ], [ -43214.168635526191792, 103899.850070542219328 ], [ -43084.59827654788387, 103954.203057463484583 ], [ -43009.870635208950262, 103824.85266919946298 ], [ -43183.152071309676103, 103748.630275198316667 ] ] ] } },
{ "type": "Feature", "properties": { "fid": 55, "ptd_id": 98, "area_km2": 0.0374321916968944, "qtd_industriais": 2, "qtd_permanentes": 76, "CAPEX_eur": 39360.0, "VAL_eur": 302159.21513881022, "TIR_perc": 64.095784114139647, "Payback_an": 2.0 }, "geometry": { "type": "Polygon", "coordinates": [ [ [ -44234.912832670153875, 105037.349397925994708 ], [ -44262.606252818812209, 105176.427718185892445 ], [ -43908.905575140932342, 105229.737508029997116 ], [ -44214.785786536951491, 104975.00798673821555 ], [ -44234.912832670153875, 105037.349397925994708 ] ] ] } },
{ "type": "Feature", "properties": { "fid": 56, "ptd_id": 340, "area_km2": 0.045127379775520018, "qtd_industriais": 2, "qtd_permanentes": 78, "CAPEX_eur": 40320.0, "VAL_eur": 309601.09628044063, "TIR_perc": 64.109095145927711, "Payback_an": 2.0 }, "geometry": { "type": "Polygon", "coordinates": [ [ [ -41169.813404325032025, 107658.34117968249484 ], [ -41064.412728729308583, 107756.383160825527739 ], [ -41018.507836599499569, 107689.288471535604913 ], [ -41006.746204272378236, 107333.516671358127496 ], [ -41138.700118554159417, 107478.910786338179605 ], [ -41181.841509589874477, 107556.229792349011404 ], [ -41169.813404325032025, 107658.34117968249484 ] ] ] } },
{ "type": "Feature", "properties": { "fid": 57, "ptd_id": 443, "area_km2": 0.032238890133053894, "qtd_industriais": 1, "qtd_permanentes": 82, "CAPEX_eur": 40800.0, "VAL_eur": 314800.99268527457, "TIR_perc": 64.385181196672207, "Payback_an": 2.0 }, "geometry": { "type": "Polygon", "coordinates": [ [ [ -44059.123952204390662, 105789.411614295444451 ], [ -43975.697432811371982, 105913.973185786177055 ], [ -43807.395401885194588, 105697.397629004524788 ], [ -43937.118811970598472, 105676.05159754374472 ], [ -44028.798419178310724, 105694.55004265633761 ], [ -44059.123952204390662, 105789.411614295444451 ] ] ] } },
{ "type": "Feature", "properties": { "fid": 58, "ptd_id": 22, "area_km2": 0.054265253053692834, "qtd_industriais": 7, "qtd_permanentes": 80, "CAPEX_eur": 48480.0, "VAL_eur": 365462.30681420583, "TIR_perc": 63.066216213607838, "Payback_an": 2.0 }, "geometry": { "type": "Polygon", "coordinates": [ [ [ -42752.666926271893317, 108602.550916977765155 ], [ -42709.193337172953761, 108600.268990980708622 ], [ -42672.168431215417513, 108590.073024804252782 ], [ -42511.462529956865183, 108542.167217953538056 ], [ -42493.195021528212237, 108292.697163232689491 ], [ -42503.406006465069368, 108274.787386552226963 ], [ -42507.489387479545258, 108272.245428243782953 ], [ -42529.80801228168275, 108271.66223443421768 ], [ -42685.712152455518662, 108383.450832171554794 ], [ -42759.012400561536197, 108574.347015244260547 ], [ -42752.666926271893317, 108602.550916977765155 ] ] ] } },
{ "type": "Feature", "properties": { "fid": 59, "ptd_id": 414, "area_km2": 0.031722217661254971, "qtd_industriais": 3, "qtd_permanentes": 90, "CAPEX_eur": 47520.0, "VAL_eur": 363936.24900865019, "TIR_perc": 63.960253504159745, "Payback_an": 2.0 }, "geometry": { "type": "Polygon", "coordinates": [ [ [ -40245.256975170021178, 103425.441316549331532 ], [ -40198.288736293616239, 103426.642571160933585 ], [ -40161.750657813623548, 103405.534859766965383 ], [ -40149.277566015523917, 103106.287995463280822 ], [ -40305.331484155874932, 103232.738899351694272 ], [ -40245.256975170021178, 103425.441316549331532 ] ] ] } },
{ "type": "Feature", "properties": { "fid": 60, "ptd_id": 226, "area_km2": 0.064918672493635907, "qtd_industriais": 7, "qtd_permanentes": 83, "CAPEX_eur": 49920.0, "VAL_eur": 376625.12852665153, "TIR_perc": 63.112042451887504, "Payback_an": 2.0 }, "geometry": { "type": "Polygon", "coordinates": [ [ [ -42109.062300530757057, 107002.898149436572567 ], [ -41958.286364073472214, 107421.552950004421291 ], [ -41782.039831917209085, 107089.407501751251402 ], [ -42059.64784562013665, 106997.710326305910712 ], [ -42109.062300530757057, 107002.898149436572567 ] ] ] } },
{ "type": "Feature", "properties": { "fid": 61, "ptd_id": 306, "area_km2": 0.059442858637414282, "qtd_industriais": 10, "qtd_permanentes": 77, "CAPEX_eur": 51360.0, "VAL_eur": 383351.08273704106, "TIR_perc": 62.512628444651817, "Payback_an": 2.0 }, "geometry": { "type": "Polygon", "coordinates": [ [ [ -42596.309952209740004, 105310.633473293812131 ], [ -42761.275043907422514, 105349.591482379968511 ], [ -42575.91538966572989, 105544.489781683951151 ], [ -42343.321765377972042, 105568.250045398439397 ], [ -42327.887159239784523, 105532.426165804732591 ], [ -42351.603768065106124, 105466.019383130973438 ], [ -42596.309952209740004, 105310.633473293812131 ] ] ] } },
{ "type": "Feature", "properties": { "fid": 62, "ptd_id": 64, "area_km2": 0.063859189141984934, "qtd_industriais": 4, "qtd_permanentes": 95, "CAPEX_eur": 51360.0, "VAL_eur": 392224.81774115324, "TIR_perc": 63.797964845738854, "Payback_an": 2.0 }, "geometry": { "type": "Polygon", "coordinates": [ [ [ -42403.491156582080293, 107746.923949063377222 ], [ -42356.80158387566189, 107813.832915349921677 ], [ -42037.971393464948051, 107700.296557748617488 ], [ -42029.594414936633257, 107651.175771363123204 ], [ -42029.64811398958409, 107490.363031074113678 ], [ -42075.179464335691591, 107459.0484774238721 ], [ -42403.491156582080293, 107746.923949063377222 ] ] ] } },
{ "type": "Feature", "properties": { "fid": 63, "ptd_id": 325, "area_km2": 0.15378237484418103, "qtd_industriais": 4, "qtd_permanentes": 107, "CAPEX_eur": 57120.0, "VAL_eur": 436876.10459093581, "TIR_perc": 63.884373362585144, "Payback_an": 2.0 }, "geometry": { "type": "Polygon", "coordinates": [ [ [ -40934.908648330012511, 100993.240087986443541 ], [ -40708.45069168417831, 101149.413468098442536 ], [ -40478.837634184099443, 100994.781888953060843 ], [ -40402.155859061349474, 100868.369226947441348 ], [ -40513.8134847425099, 100797.359039391827537 ], [ -40853.957518222254294, 100653.650567121905624 ], [ -40934.908648330012511, 100993.240087986443541 ] ] ] } },
{ "type": "Feature", "properties": { "fid": 64, "ptd_id": 166, "area_km2": 0.091322634019953483, "qtd_industriais": 1, "qtd_permanentes": 115, "CAPEX_eur": 56640.0, "VAL_eur": 437592.03152217669, "TIR_perc": 64.460595975167863, "Payback_an": 2.0 }, "geometry": { "type": "Polygon", "coordinates": [ [ [ -43456.784710446532699, 105179.589313652031706 ], [ -43466.162083376693772, 105283.876447744623874 ], [ -43358.238651864296116, 105576.05543658118404 ], [ -43086.147914224333363, 105519.70595238423266 ], [ -43065.855424260502332, 105503.586142343323445 ], [ -43273.9061134285148, 105268.36471465426439 ], [ -43443.240558023950143, 105088.837224158312893 ], [ -43456.784710446532699, 105179.589313652031706 ] ] ] } },
{ "type": "Feature", "properties": { "fid": 65, "ptd_id": 71, "area_km2": 0.066058352829390668, "qtd_industriais": 4, "qtd_permanentes": 114, "CAPEX_eur": 60480.0, "VAL_eur": 462922.68858664238, "TIR_perc": 63.927177552435111, "Payback_an": 2.0 }, "geometry": { "type": "Polygon", "coordinates": [ [ [ -39155.345905755333661, 106841.099303830837016 ], [ -39127.956835579141625, 106875.225439375339192 ], [ -39101.088997355407628, 106906.811358410443063 ], [ -38931.005386118100432, 106917.979973163601244 ], [ -39018.502675931835256, 106647.286447722508456 ], [ -39298.829523782500473, 106583.40782168986334 ], [ -39214.98132821717445, 106764.810658826711006 ], [ -39155.345905755333661, 106841.099303830837016 ] ] ] } },
{ "type": "Feature", "properties": { "fid": 66, "ptd_id": 223, "area_km2": 0.079913575722373079, "qtd_industriais": 3, "qtd_permanentes": 117, "CAPEX_eur": 60480.0, "VAL_eur": 464401.64442066109, "TIR_perc": 64.10909514592764, "Payback_an": 2.0 }, "geometry": { "type": "Polygon", "coordinates": [ [ [ -38214.273135541057854, 103581.113368617006927 ], [ -37602.456579570607573, 103388.37284389299748 ], [ -37453.160871927371772, 103234.461615389125654 ], [ -37685.36657702318189, 103216.142988016930758 ], [ -38214.273135541057854, 103581.113368617006927 ] ] ] } },
{ "type": "Feature", "properties": { "fid": 67, "ptd_id": 232, "area_km2": 0.057739188265808705, "qtd_industriais": 2, "qtd_permanentes": 124, "CAPEX_eur": 62400.0, "VAL_eur": 480764.36253794056, "TIR_perc": 64.302207295047765, "Payback_an": 2.0 }, "geometry": { "type": "Polygon", "coordinates": [ [ [ -42246.494730616323068, 106721.418584254264715 ], [ -42176.818439552451309, 106788.720163600621163 ], [ -41912.219857701791625, 106637.384778196224943 ], [ -42032.286954974915716, 106480.591548222102574 ], [ -42184.591168254475633, 106536.867370583495358 ], [ -42246.494730616323068, 106721.418584254264715 ] ] ] } },
{ "type": "Feature", "properties": { "fid": 68, "ptd_id": 334, "area_km2": 0.084603851411070935, "qtd_industriais": 2, "qtd_permanentes": 125, "CAPEX_eur": 62880.0, "VAL_eur": 484485.30310875585, "TIR_perc": 64.304899197528172, "Payback_an": 2.0 }, "geometry": { "type": "Polygon", "coordinates": [ [ [ -43806.522588987194467, 107207.533700914515066 ], [ -43807.654600555011712, 107298.380381152644986 ], [ -43806.518833504313079, 107336.108954599229037 ], [ -43737.810410130929085, 107399.90368067540112 ], [ -43621.892840898028226, 107400.678169461200014 ], [ -43428.672990977087466, 107121.886694493776304 ], [ -43436.706513394070498, 106993.525002315756865 ], [ -43806.522588987194467, 107207.533700914515066 ] ] ] } },
{ "type": "Feature", "properties": { "fid": 69, "ptd_id": 214, "area_km2": 0.064511963499259653, "qtd_industriais": 1, "qtd_permanentes": 129, "CAPEX_eur": 63360.0, "VAL_eur": 489685.19951358967, "TIR_perc": 64.481198257839949, "Payback_an": 2.0 }, "geometry": { "type": "Polygon", "coordinates": [ [ [ -42015.417913729907013, 103165.692063971728203 ], [ -42264.675141646068369, 103092.919793024266255 ], [ -42344.551743629337579, 103137.549012514020433 ], [ -42323.576517772111401, 103445.905594801544794 ], [ -42152.697053658645018, 103326.823914770575357 ], [ -42015.417913729907013, 103165.692063971728203 ] ] ] } },
{ "type": "Feature", "properties": { "fid": 70, "ptd_id": 75, "area_km2": 0.12528235491326337, "qtd_industriais": 1, "qtd_permanentes": 134, "CAPEX_eur": 65760.0, "VAL_eur": 508289.90236766578, "TIR_perc": 64.487535768342582, "Payback_an": 2.0 }, "geometry": { "type": "Polygon", "coordinates": [ [ [ -41662.905775539875322, 111008.782178806635784 ], [ -41522.170937492359371, 111078.601403681241209 ], [ -41361.915306787588634, 110976.473472957237391 ], [ -41198.719688906297961, 110671.61944421469525 ], [ -41759.470596244689659, 110780.513270372975967 ], [ -41662.905775539875322, 111008.782178806635784 ] ] ] } },
{ "type": "Feature", "properties": { "fid": 71, "ptd_id": 294, "area_km2": 0.15592844351000509, "qtd_industriais": 4, "qtd_permanentes": 134, "CAPEX_eur": 70080.0, "VAL_eur": 537341.5000029467, "TIR_perc": 64.026858468179753, "Payback_an": 2.0 }, "geometry": { "type": "Polygon", "coordinates": [ [ [ -39114.509175906481687, 107247.839963200327475 ], [ -39074.71696189193608, 107409.675783252125257 ], [ -38986.483971796704282, 107460.285189487913158 ], [ -38777.954335725276906, 107466.525115076088696 ], [ -38640.569100822780456, 107370.995752768503735 ], [ -38568.071966417788644, 107293.095471556502162 ], [ -38608.268575966088974, 107082.263791788893286 ], [ -38795.99186704478052, 107075.199792388564674 ], [ -39114.509175906481687, 107247.839963200327475 ] ] ] } },
{ "type": "Feature", "properties": { "fid": 72, "ptd_id": 44, "area_km2": 0.043647888051509307, "qtd_industriais": 8, "qtd_permanentes": 126, "CAPEX_eur": 72000.0, "VAL_eur": 546309.4389501327, "TIR_perc": 63.432359925774094, "Payback_an": 2.0 }, "geometry": { "type": "Polygon", "coordinates": [ [ [ -41423.347220556759567, 105314.755887247578357 ], [ -41411.820244204136543, 105389.517647715896601 ], [ -41327.674342990387231, 105317.045068382445606 ], [ -41251.096206780108332, 105088.023085112523404 ], [ -41311.531433973279491, 104954.797632073008572 ], [ -41351.429669014796673, 104891.564785588547238 ], [ -41423.347220556759567, 105314.755887247578357 ] ] ] } },
{ "type": "Feature", "properties": { "fid": 73, "ptd_id": 19, "area_km2": 0.073957264782597273, "qtd_industriais": 4, "qtd_permanentes": 136, "CAPEX_eur": 71040.0, "VAL_eur": 544783.38114457717, "TIR_perc": 64.035344811631319, "Payback_an": 2.0 }, "geometry": { "type": "Polygon", "coordinates": [ [ [ -40501.880645677731081, 107850.203348215436563 ], [ -40280.611459200023091, 108248.663129500462674 ], [ -40217.872169712994946, 107878.868860429036431 ], [ -40268.051640190737089, 107810.577474063378759 ], [ -40338.7380688739795, 107723.618865110329352 ], [ -40501.880645677731081, 107850.203348215436563 ] ] ] } },
{ "type": "Feature", "properties": { "fid": 74, "ptd_id": 452, "area_km2": 0.05851592411936736, "qtd_industriais": 10, "qtd_permanentes": 125, "CAPEX_eur": 74400.0, "VAL_eur": 561956.23013617145, "TIR_perc": 63.176030201100254, "Payback_an": 2.0 }, "geometry": { "type": "Polygon", "coordinates": [ [ [ -37324.890579310238536, 100415.823021783289732 ], [ -37295.680255809107621, 100428.525278477856773 ], [ -37086.17310745191935, 100220.940908309057704 ], [ -37150.528773510770407, 100076.942033649364021 ], [ -37160.661660315046902, 100072.594966578559252 ], [ -37332.247074271348538, 100082.913006614486221 ], [ -37324.890579310238536, 100415.823021783289732 ] ] ] } },
{ "type": "Feature", "properties": { "fid": 75, "ptd_id": 364, "area_km2": 0.073078772084402749, "qtd_industriais": 1, "qtd_permanentes": 151, "CAPEX_eur": 73920.0, "VAL_eur": 571545.8920715244, "TIR_perc": 64.506005082383339, "Payback_an": 2.0 }, "geometry": { "type": "Polygon", "coordinates": [ [ [ -40855.312624712474644, 106534.251420403161319 ], [ -40811.362298725980509, 106574.988052937173052 ], [ -40670.565100780724606, 106579.0260456680262 ], [ -40631.778781032102415, 106579.180725755883032 ], [ -40607.069607484583685, 106534.725612609268865 ], [ -40608.820746713376138, 106019.727088702347828 ], [ -40855.312624712474644, 106534.251420403161319 ] ] ] } },
{ "type": "Feature", "properties": { "fid": 76, "ptd_id": 394, "area_km2": 0.11797693699134311, "qtd_industriais": 2, "qtd_permanentes": 156, "CAPEX_eur": 77760.0, "VAL_eur": 599834.46080402751, "TIR_perc": 64.371864402322416, "Payback_an": 2.0 }, "geometry": { "type": "Polygon", "coordinates": [ [ [ -44572.764830981192063, 106003.621267070848262 ], [ -44483.206158071596292, 106115.358570171607425 ], [ -44397.753417289219215, 106159.080280599169782 ], [ -44270.433049781437148, 106174.480144749570172 ], [ -44204.665338865183003, 105998.450750004325528 ], [ -44259.996880626888014, 105851.83644922071835 ], [ -44287.207084187408327, 105819.693429102873779 ], [ -44414.607162378175417, 105759.318499954722938 ], [ -44559.34417550037324, 105732.153823155880673 ], [ -44572.764830981192063, 106003.621267070848262 ] ] ] } },
{ "type": "Feature", "properties": { "fid": 77, "ptd_id": 189, "area_km2": 0.078385842029770322, "qtd_industriais": 2, "qtd_permanentes": 157, "CAPEX_eur": 78240.0, "VAL_eur": 603555.40137484262, "TIR_perc": 64.373600487576425, "Payback_an": 2.0 }, "geometry": { "type": "Polygon", "coordinates": [ [ [ -39259.967194837590796, 104146.68483162598568 ], [ -39210.830824463388126, 104243.950124904469703 ], [ -38893.127911587835115, 104344.839408995117992 ], [ -38878.625689705302648, 104331.037946878932416 ], [ -38895.103829514075187, 104151.167621514920029 ], [ -39287.221524530505121, 103989.204232384145143 ], [ -39259.967194837590796, 104146.68483162598568 ] ] ] } },
{ "type": "Feature", "properties": { "fid": 78, "ptd_id": 241, "area_km2": 0.1885766820501599, "qtd_industriais": 69, "qtd_permanentes": 9, "CAPEX_eur": 103680.0, "VAL_eur": 701675.21074879682, "TIR_perc": 57.332372566597734, "Payback_an": 2.0 }, "geometry": { "type": "Polygon", "coordinates": [ [ [ -38144.066329455054074, 105143.81246675120201 ], [ -37520.548439827689435, 105661.13595674316457 ], [ -37651.682066394540016, 105057.364561478752876 ], [ -37922.461914904401056, 104977.971730755234603 ], [ -38109.269621499792265, 105090.563600756097003 ], [ -38144.066329455054074, 105143.81246675120201 ] ] ] } },
{ "type": "Feature", "properties": { "fid": 79, "ptd_id": 275, "area_km2": 0.17969526555976836, "qtd_industriais": 1, "qtd_permanentes": 185, "CAPEX_eur": 90240.0, "VAL_eur": 698057.87147924188, "TIR_perc": 64.532923119114585, "Payback_an": 2.0 }, "geometry": { "type": "Polygon", "coordinates": [ [ [ -41802.366821124320268, 108606.60134627239313 ], [ -41807.093857544954517, 108611.369793314370327 ], [ -41805.35741985495406, 108810.497079248205409 ], [ -41471.068616467084212, 109077.336671220502467 ], [ -41250.081265225853713, 108923.12389462570718 ], [ -41510.216337127560109, 108582.599908086893265 ], [ -41590.862901423024596, 108506.869209037904511 ], [ -41747.760680517050787, 108559.209035020234296 ], [ -41802.366821124320268, 108606.60134627239313 ] ] ] } },
{ "type": "Feature", "properties": { "fid": 80, "ptd_id": 278, "area_km2": 0.12800402747534514, "qtd_industriais": 1, "qtd_permanentes": 191, "CAPEX_eur": 93120.0, "VAL_eur": 720383.51490413316, "TIR_perc": 64.536693929022121, "Payback_an": 2.0 }, "geometry": { "type": "Polygon", "coordinates": [ [ [ -40079.455104792861675, 113004.777913169280509 ], [ -40006.430852009740192, 113055.179352244129404 ], [ -39820.946560888769454, 112975.147454981313786 ], [ -39654.011083485129348, 112813.396456038681208 ], [ -40012.082022519985912, 112597.588389529599226 ], [ -40135.798981198830006, 112698.090982396883192 ], [ -40079.455104792861675, 113004.777913169280509 ] ] ] } },
{ "type": "Feature", "properties": { "fid": 81, "ptd_id": 66, "area_km2": 0.069919286015151877, "qtd_industriais": 8, "qtd_permanentes": 185, "CAPEX_eur": 100320.0, "VAL_eur": 765844.93262823042, "TIR_perc": 63.777465205938121, "Payback_an": 2.0 }, "geometry": { "type": "Polygon", "coordinates": [ [ [ -39318.396848303869774, 112951.004679789097281 ], [ -39309.835669664164016, 112956.922843273147009 ], [ -39285.198288788189529, 112967.09810771694174 ], [ -38884.495067184725485, 113008.144737377209822 ], [ -39002.610520746035036, 112843.841396336662001 ], [ -39066.440143098079716, 112774.192135106015485 ], [ -39410.520499673279119, 112851.668586637009867 ], [ -39318.396848303869774, 112951.004679789097281 ] ] ] } },
{ "type": "Feature", "properties": { "fid": 82, "ptd_id": 134, "area_km2": 0.15458871584758666, "qtd_industriais": 1, "qtd_permanentes": 209, "CAPEX_eur": 101760.0, "VAL_eur": 787360.44517880701, "TIR_perc": 64.546725705637286, "Payback_an": 2.0 }, "geometry": { "type": "Polygon", "coordinates": [ [ [ -34349.752887088725402, 102929.129985239866073 ], [ -34430.924649572196358, 103143.495750031535863 ], [ -34099.114655671924993, 103179.826797232904937 ], [ -33845.798098479914188, 103079.016877647532965 ], [ -34107.875210892467294, 102741.53491683966422 ], [ -34260.652806689206045, 102795.805529248726089 ], [ -34349.752887088725402, 102929.129985239866073 ] ] ] } },
{ "type": "Feature", "properties": { "fid": 83, "ptd_id": 481, "area_km2": 0.043825504189114295, "qtd_industriais": 41, "qtd_permanentes": 122, "CAPEX_eur": 117600.0, "VAL_eur": 850993.25065496133, "TIR_perc": 60.818926585277964, "Payback_an": 2.0 }, "geometry": { "type": "Polygon", "coordinates": [ [ [ -40127.121705013123574, 107815.413192763997358 ], [ -39948.783128086259239, 107925.904209387226729 ], [ -39905.828085203422233, 107914.4243004109303 ], [ -39902.947520295398135, 107913.653709064979921 ], [ -39986.735011903132545, 107610.546368419672945 ], [ -40065.096560470068653, 107659.674641219156911 ], [ -40170.845657735953864, 107739.346121817419771 ], [ -40127.121705013123574, 107815.413192763997358 ] ] ] } }
]
}
